{"type": "FeatureCollection", "features": [ {"type": "Feature", "properties": {"norad_id": 66526, "name": "STARLINK-35932", "group": "last-30-days", "lat": 27.538223901079522, "lon": 167.70359870002005, "alt_km": 440.11993691084444, "timestamp": "2025-12-18T07:01:53.339517+00:00", "meta": {"OBJECT_NAME": "STARLINK-35932", "OBJECT_ID": "2025-265L", "EPOCH": "2025-12-18T00:00:02.000160", "MEAN_MOTION": 15.40664723, "ECCENTRICITY": 0.00013174, "INCLINATION": 43.0007, "RA_OF_ASC_NODE": 23.4156, "ARG_OF_PERICENTER": 256.7211, "MEAN_ANOMALY": 53.7337, "EPHEMERIS_TYPE": 0, "CLASSIFICATION_TYPE": "U", "NORAD_CAT_ID": 66526, "ELEMENT_SET_NO": 999, "REV_AT_EPOCH": 573, "BSTAR": 0.0016723337, "MEAN_MOTION_DOT": 0.00070116, "MEAN_MOTION_DDOT": 0}, "tle": {"line1": "1 66526U 25265L   25352.00002315  .00070116  00000+0  16723-2 0  9998", "line2": "2 66526  43.0007  23.4156 0001317 256.7211  53.7337 15.40664723  5739"}}, "geometry": {"type": "Point", "coordinates": [167.70359870002005, 27.538223901079522]}}, {"type": "Feature", "properties": {"norad_id": 66527, "name": "STARLINK-35935", "group": "last-30-days", "lat": -28.029475272400003, "lon": -123.64275789181188, "alt_km": 426.37907001886106, "timestamp": "2025-12-18T07:01:53.339528+00:00", "meta": {"OBJECT_NAME": "STARLINK-35935", "OBJECT_ID": "2025-265M", "EPOCH": "2025-12-17T13:02:11.634144", "MEAN_MOTION": 15.48317783, "ECCENTRICITY": 0.00013509, "INCLINATION": 43.0009, "RA_OF_ASC_NODE": 25.887, "ARG_OF_PERICENTER": 326.6436, "MEAN_ANOMALY": 33.4338, "EPHEMERIS_TYPE": 0, "CLASSIFICATION_TYPE": "U", "NORAD_CAT_ID": 66527, "ELEMENT_SET_NO": 999, "REV_AT_EPOCH": 450, "BSTAR": -0.007612583, "MEAN_MOTION_DOT": -0.00392519, "MEAN_MOTION_DDOT": 0}, "tle": {"line1": "1 66527U 25265M   25351.54319021 -.00392519  00000+0 -76126-2 0  9991", "line2": "2 66527  43.0009  25.8870 0001350 326.6436  33.4338 15.48317783  4503"}}, "geometry": {"type": "Point", "coordinates": [-123.64275789181188, -28.029475272400003]}}, {"type": "Feature", "properties": {"norad_id": 66528, "name": "STARLINK-35928", "group": "last-30-days", "lat": -34.293651169249955, "lon": -111.47340941313252, "alt_km": 416.8068354548386, "timestamp": "2025-12-18T07:01:53.339539+00:00", "meta": {"OBJECT_NAME": "STARLINK-35928", "OBJECT_ID": "2025-265N", "EPOCH": "2025-12-17T09:55:22.529280", "MEAN_MOTION": 15.5058416, "ECCENTRICITY": 0.00019733, "INCLINATION": 43.001, "RA_OF_ASC_NODE": 26.6315, "ARG_OF_PERICENTER": 279.1886, "MEAN_ANOMALY": 80.8751, "EPHEMERIS_TYPE": 0, "CLASSIFICATION_TYPE": "U", "NORAD_CAT_ID": 66528, "ELEMENT_SET_NO": 999, "REV_AT_EPOCH": 448, "BSTAR": 0.0010038948, "MEAN_MOTION_DOT": 0.00059009, "MEAN_MOTION_DDOT": 0}, "tle": {"line1": "1 66528U 25265N   25351.41345520  .00059009  00000+0  10039-2 0  9994", "line2": "2 66528  43.0010  26.6315 0001973 279.1886  80.8751 15.50584160  4481"}}, "geometry": {"type": "Point", "coordinates": [-111.47340941313252, -34.293651169249955]}}, {"type": "Feature", "properties": {"norad_id": 66529, "name": "STARLINK-35933", "group": "last-30-days", "lat": 8.625849396663073, "lon": 31.395507713738123, "alt_km": 442.87705954311514, "timestamp": "2025-12-18T07:01:53.339551+00:00", "meta": {"OBJECT_NAME": "STARLINK-35933", "OBJECT_ID": "2025-265P", "EPOCH": "2025-12-17T12:18:21.273408", "MEAN_MOTION": 15.406613, "ECCENTRICITY": 0.0001239, "INCLINATION": 43.0016, "RA_OF_ASC_NODE": 26.5242, "ARG_OF_PERICENTER": 252.9993, "MEAN_ANOMALY": 107.0728, "EPHEMERIS_TYPE": 0, "CLASSIFICATION_TYPE": "U", "NORAD_CAT_ID": 66529, "ELEMENT_SET_NO": 999, "REV_AT_EPOCH": 449, "BSTAR": 0.0010773697, "MEAN_MOTION_DOT": 0.00044908, "MEAN_MOTION_DDOT": 0}, "tle": {"line1": "1 66529U 25265P   25351.51274622  .00044908  00000+0  10774-2 0  9998", "line2": "2 66529  43.0016  26.5242 0001239 252.9993 107.0728 15.40661300  4497"}}, "geometry": {"type": "Point", "coordinates": [31.395507713738123, 8.625849396663073]}}, {"type": "Feature", "properties": {"norad_id": 66530, "name": "STARLINK-35961", "group": "last-30-days", "lat": 24.678725936233672, "lon": 51.51172881774824, "alt_km": 440.0306940677692, "timestamp": "2025-12-18T07:01:53.339562+00:00", "meta": {"OBJECT_NAME": "STARLINK-35961", "OBJECT_ID": "2025-265Q", "EPOCH": "2025-12-17T12:11:53.028960", "MEAN_MOTION": 15.40685219, "ECCENTRICITY": 7.762e-05, "INCLINATION": 43.0003, "RA_OF_ASC_NODE": 26.4907, "ARG_OF_PERICENTER": 291.5722, "MEAN_ANOMALY": 68.5051, "EPHEMERIS_TYPE": 0, "CLASSIFICATION_TYPE": "U", "NORAD_CAT_ID": 66530, "ELEMENT_SET_NO": 999, "REV_AT_EPOCH": 449, "BSTAR": 0.0012642944, "MEAN_MOTION_DOT": 0.00052849, "MEAN_MOTION_DDOT": 0}, "tle": {"line1": "1 66530U 25265Q   25351.50825265  .00052849  00000+0  12643-2 0  9994", "line2": "2 66530  43.0003  26.4907 0000776 291.5722  68.5051 15.40685219  4491"}}, "geometry": {"type": "Point", "coordinates": [51.51172881774824, 24.678725936233672]}}, {"type": "Feature", "properties": {"norad_id": 66531, "name": "STARLINK-35960", "group": "last-30-days", "lat": 37.23715603247002, "lon": 76.55545777644215, "alt_km": 439.0719815833454, "timestamp": "2025-12-18T07:01:53.339573+00:00", "meta": {"OBJECT_NAME": "STARLINK-35960", "OBJECT_ID": "2025-265R", "EPOCH": "2025-12-18T00:00:02.000160", "MEAN_MOTION": 15.40667092, "ECCENTRICITY": 0.00014308, "INCLINATION": 43.001, "RA_OF_ASC_NODE": 23.5954, "ARG_OF_PERICENTER": 250.3541, "MEAN_ANOMALY": 345.4564, "EPHEMERIS_TYPE": 0, "CLASSIFICATION_TYPE": "U", "NORAD_CAT_ID": 66531, "ELEMENT_SET_NO": 999, "REV_AT_EPOCH": 584, "BSTAR": 0.001307784, "MEAN_MOTION_DOT": 0.00054658, "MEAN_MOTION_DDOT": 0}, "tle": {"line1": "1 66531U 25265R   25352.00002315  .00054658  00000+0  13078-2 0  9997", "line2": "2 66531  43.0010  23.5954 0001430 250.3541 345.4564 15.40667092  5845"}}, "geometry": {"type": "Point", "coordinates": [76.55545777644215, 37.23715603247002]}}, {"type": "Feature", "properties": {"norad_id": 66532, "name": "STARLINK-35914", "group": "last-30-days", "lat": 42.92762377333283, "lon": 108.36050545766206, "alt_km": 438.5261749071469, "timestamp": "2025-12-18T07:01:53.339585+00:00", "meta": {"OBJECT_NAME": "STARLINK-35914", "OBJECT_ID": "2025-265S", "EPOCH": "2025-12-18T00:00:02.000160", "MEAN_MOTION": 15.40609726, "ECCENTRICITY": 0.00016754, "INCLINATION": 43.0008, "RA_OF_ASC_NODE": 23.5344, "ARG_OF_PERICENTER": 262.6667, "MEAN_ANOMALY": 358.0496, "EPHEMERIS_TYPE": 0, "CLASSIFICATION_TYPE": "U", "NORAD_CAT_ID": 66532, "ELEMENT_SET_NO": 999, "REV_AT_EPOCH": 584, "BSTAR": 0.0014699605, "MEAN_MOTION_DOT": 0.00061412, "MEAN_MOTION_DDOT": 0}, "tle": {"line1": "1 66532U 25265S   25352.00002315  .00061412  00000+0  14700-2 0  9997", "line2": "2 66532  43.0008  23.5344 0001675 262.6667 358.0496 15.40609726  5846"}}, "geometry": {"type": "Point", "coordinates": [108.36050545766206, 42.92762377333283]}}, {"type": "Feature", "properties": {"norad_id": 66533, "name": "STARLINK-35707", "group": "last-30-days", "lat": 34.025147136500145, "lon": 155.32909648524867, "alt_km": 439.184878637172, "timestamp": "2025-12-18T07:01:53.339597+00:00", "meta": {"OBJECT_NAME": "STARLINK-35707", "OBJECT_ID": "2025-265T", "EPOCH": "2025-12-18T00:00:02.000160", "MEAN_MOTION": 15.40664383, "ECCENTRICITY": 0.00012438, "INCLINATION": 43.0009, "RA_OF_ASC_NODE": 23.4447, "ARG_OF_PERICENTER": 255.9421, "MEAN_ANOMALY": 42.0639, "EPHEMERIS_TYPE": 0, "CLASSIFICATION_TYPE": "U", "NORAD_CAT_ID": 66533, "ELEMENT_SET_NO": 999, "REV_AT_EPOCH": 584, "BSTAR": 0.0016620124, "MEAN_MOTION_DOT": 0.00069676, "MEAN_MOTION_DDOT": 0}, "tle": {"line1": "1 66533U 25265T   25352.00002315  .00069676  00000+0  16620-2 0  9991", "line2": "2 66533  43.0009  23.4447 0001243 255.9421  42.0639 15.40664383  5844"}}, "geometry": {"type": "Point", "coordinates": [155.32909648524867, 34.025147136500145]}}, {"type": "Feature", "properties": {"norad_id": 66534, "name": "STARLINK-35976", "group": "last-30-days", "lat": 3.6439183559231543, "lon": -162.28411854693246, "alt_km": 443.25828339488453, "timestamp": "2025-12-18T07:01:53.339607+00:00", "meta": {"OBJECT_NAME": "STARLINK-35976", "OBJECT_ID": "2025-265U", "EPOCH": "2025-12-18T00:00:02.000160", "MEAN_MOTION": 15.4065546, "ECCENTRICITY": 0.0001227, "INCLINATION": 43.0002, "RA_OF_ASC_NODE": 23.3231, "ARG_OF_PERICENTER": 256.2618, "MEAN_ANOMALY": 91.5326, "EPHEMERIS_TYPE": 0, "CLASSIFICATION_TYPE": "U", "NORAD_CAT_ID": 66534, "ELEMENT_SET_NO": 999, "REV_AT_EPOCH": 584, "BSTAR": 0.0015042821, "MEAN_MOTION_DOT": 0.00062961, "MEAN_MOTION_DDOT": 0}, "tle": {"line1": "1 66534U 25265U   25352.00002315  .00062961  00000+0  15043-2 0  9990", "line2": "2 66534  43.0002  23.3231 0001227 256.2618  91.5326 15.40655460  5840"}}, "geometry": {"type": "Point", "coordinates": [-162.28411854693246, 3.6439183559231543]}}, {"type": "Feature", "properties": {"norad_id": 66535, "name": "STARLINK-35514", "group": "last-30-days", "lat": -4.806650752522474, "lon": -153.21724804089467, "alt_km": 444.13013600837076, "timestamp": "2025-12-18T07:01:53.339617+00:00", "meta": {"OBJECT_NAME": "STARLINK-35514", "OBJECT_ID": "2025-265V", "EPOCH": "2025-12-18T00:00:02.000160", "MEAN_MOTION": 15.40661369, "ECCENTRICITY": 0.00016937, "INCLINATION": 43.0003, "RA_OF_ASC_NODE": 23.294, "ARG_OF_PERICENTER": 261.0821, "MEAN_ANOMALY": 99.116, "EPHEMERIS_TYPE": 0, "CLASSIFICATION_TYPE": "U", "NORAD_CAT_ID": 66535, "ELEMENT_SET_NO": 999, "REV_AT_EPOCH": 584, "BSTAR": 0.001745513, "MEAN_MOTION_DOT": 0.0007322, "MEAN_MOTION_DDOT": 0}, "tle": {"line1": "1 66535U 25265V   25352.00002315  .00073220  00000+0  17455-2 0  9990", "line2": "2 66535  43.0003  23.2940 0001693 261.0821  99.1160 15.40661369  5840"}}, "geometry": {"type": "Point", "coordinates": [-153.21724804089467, -4.806650752522474]}}]}